start=new Date('2022-05-26T00:00:00.000Z').valueOf();
sats=[{"LAUNCH_DATE":"2020-06-04","TLE_LINE2":"2 45673  53.0545 160.2986 0001808  50.8723 309.2427 15.06389606110118","ARG_OF_PERICENTER":"50.8723","ECCENTRICITY":"0.00018080","MEAN_MOTION_DOT":"0.00000393","MEAN_MOTION":"15.06389606","OBJECT_TYPE":"PAYLOAD","INCLINATION":"53.0545","PERIAPSIS":"545.993","OBJECT_NAME":"STARLINK-1456","DECAY_DATE":null,"ELEMENT_SET_NO":"999","COUNTRY_CODE":"US","BSTAR":"0.00004530600000","RA_OF_ASC_NODE":"160.2986","PERIOD":"95.593","MEAN_ANOMALY":"309.2427","SITE":"AFETR","OBJECT_ID":"2020-035S","SEMIMAJOR_AXIS":"6925.380","NORAD_CAT_ID":"45673","TIME_SYSTEM":"UTC","GP_ID":"204501601","TLE_LINE1":"1 45673U 20035S   22145.53892190  .00000393  00000-0  45306-4 0  9993","CENTER_NAME":"EARTH","EPHEMERIS_TYPE":"0","APOAPSIS":"548.498","RCS_SIZE":"LARGE","REV_AT_EPOCH":"11011","MEAN_ELEMENT_THEORY":"SGP4","REF_FRAME":"TEME","MEAN_MOTION_DDOT":"0.0000000000000","CLASSIFICATION_TYPE":"U","EPOCH":"2022-05-25T12:56:02.852160","FILE":"3463908"},{"BSTAR":"0.00049855000000","COUNTRY_CODE":"US","RA_OF_ASC_NODE":"160.2768","PERIOD":"95.594","MEAN_ANOMALY":"302.3588","SEMIMAJOR_AXIS":"6925.449","OBJECT_ID":"2020-035T","SITE":"AFETR","TLE_LINE2":"2 45674  53.0540 160.2768 0001788  57.7574 302.3588 15.06367194110085","LAUNCH_DATE":"2020-06-04","MEAN_MOTION":"15.06367194","MEAN_MOTION_DOT":"0.00007146","ARG_OF_PERICENTER":"57.7574","ECCENTRICITY":"0.00017880","PERIAPSIS":"546.076","INCLINATION":"53.0540","OBJECT_TYPE":"PAYLOAD","ELEMENT_SET_NO":"999","DECAY_DATE":null,"OBJECT_NAME":"STARLINK-1457","REV_AT_EPOCH":"11008","RCS_SIZE":"LARGE","APOAPSIS":"548.552","EPHEMERIS_TYPE":"0","CLASSIFICATION_TYPE":"U","MEAN_MOTION_DDOT":"0.0000000000000","REF_FRAME":"TEME","MEAN_ELEMENT_THEORY":"SGP4","EPOCH":"2022-05-25T13:06:39.965760","FILE":"3464394","NORAD_CAT_ID":"45674","TIME_SYSTEM":"UTC","GP_ID":"204535239","CENTER_NAME":"EARTH","TLE_LINE1":"1 45674U 20035T   22145.54629590  .00007146  00000-0  49855-3 0  9992"},{"MEAN_MOTION_DDOT":"0.0000000000000","CLASSIFICATION_TYPE":"U","MEAN_ELEMENT_THEORY":"SGP4","REF_FRAME":"TEME","REV_AT_EPOCH":"11005","EPHEMERIS_TYPE":"0","APOAPSIS":"548.958","RCS_SIZE":"LARGE","FILE":"3463908","EPOCH":"2022-05-25T09:39:39.540672","TIME_SYSTEM":"UTC","NORAD_CAT_ID":"45675","TLE_LINE1":"1 45675U 20035U   22145.40254098 -.00001418  00000-0 -76299-4 0  9996","CENTER_NAME":"EARTH","GP_ID":"204500599","MEAN_ANOMALY":"328.5628","PERIOD":"95.593","RA_OF_ASC_NODE":"160.9224","BSTAR":"-0.00007629900000","COUNTRY_CODE":"US","SEMIMAJOR_AXIS":"6925.370","OBJECT_ID":"2020-035U","SITE":"AFETR","MEAN_MOTION":"15.06392946","ECCENTRICITY":"0.00024870","ARG_OF_PERICENTER":"31.5509","MEAN_MOTION_DOT":"-0.00001418","TLE_LINE2":"2 45675  53.0542 160.9224 0002487  31.5509 328.5628 15.06392946110052","LAUNCH_DATE":"2020-06-04","ELEMENT_SET_NO":"999","OBJECT_NAME":"STARLINK-1458","DECAY_DATE":null,"INCLINATION":"53.0542","PERIAPSIS":"545.513","OBJECT_TYPE":"PAYLOAD"},{"COUNTRY_CODE":"US","BSTAR":"-0.00005762700000","PERIOD":"95.593","RA_OF_ASC_NODE":"161.3642","MEAN_ANOMALY":"309.0991","OBJECT_ID":"2020-035V","SITE":"AFETR","SEMIMAJOR_AXIS":"6925.369","TLE_LINE2":"2 45676  53.0555 161.3642 0002091  51.0184 309.0991 15.06393454110033","LAUNCH_DATE":"2020-06-04","MEAN_MOTION_DOT":"-0.00001140","ARG_OF_PERICENTER":"51.0184","ECCENTRICITY":"0.00020910","MEAN_MOTION":"15.06393454","OBJECT_TYPE":"PAYLOAD","PERIAPSIS":"545.786","INCLINATION":"53.0555","DECAY_DATE":null,"OBJECT_NAME":"STARLINK-1460","ELEMENT_SET_NO":"999","RCS_SIZE":"LARGE","APOAPSIS":"548.682","EPHEMERIS_TYPE":"0","REV_AT_EPOCH":"11003","REF_FRAME":"TEME","MEAN_ELEMENT_THEORY":"SGP4","CLASSIFICATION_TYPE":"U","MEAN_MOTION_DDOT":"0.0000000000000","EPOCH":"2022-05-25T07:21:39.390624","FILE":"3463908","NORAD_CAT_ID":"45676","TIME_SYSTEM":"UTC","GP_ID":"204500850","CENTER_NAME":"EARTH","TLE_LINE1":"1 45676U 20035V   22145.30670591 -.00001140  00000-0 -57627-4 0  9992"},{"OBJECT_TYPE":"PAYLOAD","PERIAPSIS":"545.602","INCLINATION":"53.0518","DECAY_DATE":null,"OBJECT_NAME":"STARLINK-1392","ELEMENT_SET_NO":"999","LAUNCH_DATE":"2020-06-04","TLE_LINE2":"2 45677  53.0518 160.4081 0002303  47.2504 312.8679 15.06405383110107","MEAN_MOTION_DOT":"0.00002852","ARG_OF_PERICENTER":"47.2504","ECCENTRICITY":"0.00023030","MEAN_MOTION":"15.06405383","OBJECT_ID":"2020-035W","SITE":"AFETR","SEMIMAJOR_AXIS":"6925.332","COUNTRY_CODE":"US","BSTAR":"0.00021027000000","MEAN_ANOMALY":"312.8679","PERIOD":"95.592","RA_OF_ASC_NODE":"160.4081","GP_ID":"204501101","CENTER_NAME":"EARTH","TLE_LINE1":"1 45677U 20035W   22145.51679168  .00002852  00000-0  21027-3 0  9998","NORAD_CAT_ID":"45677","TIME_SYSTEM":"UTC","EPOCH":"2022-05-25T12:24:10.801152","FILE":"3463908","APOAPSIS":"548.792","RCS_SIZE":"LARGE","EPHEMERIS_TYPE":"0","REV_AT_EPOCH":"11010","REF_FRAME":"TEME","MEAN_ELEMENT_THEORY":"SGP4","CLASSIFICATION_TYPE":"U","MEAN_MOTION_DDOT":"0.0000000000000"},{"INCLINATION":"53.0521","PERIAPSIS":"545.796","OBJECT_TYPE":"PAYLOAD","ELEMENT_SET_NO":"999","OBJECT_NAME":"STARLINK-1393","DECAY_DATE":null,"LAUNCH_DATE":"2020-06-04","TLE_LINE2":"2 45678  53.0521 150.4272 0002138  49.0570 311.0604 15.06379516109837","MEAN_MOTION":"15.06379516","ARG_OF_PERICENTER":"49.0570","ECCENTRICITY":"0.00021380","MEAN_MOTION_DOT":"0.00002440","SEMIMAJOR_AXIS":"6925.411","SITE":"AFETR","OBJECT_ID":"2020-035X","BSTAR":"0.00018278000000","COUNTRY_CODE":"US","MEAN_ANOMALY":"311.0604","PERIOD":"95.593","RA_OF_ASC_NODE":"150.4272","GP_ID":"204510972","TLE_LINE1":"1 45678U 20035X   22145.51035211  .00002440  00000-0  18278-3 0  9991","CENTER_NAME":"EARTH","NORAD_CAT_ID":"45678","TIME_SYSTEM":"UTC","EPOCH":"2022-05-25T12:14:54.422304","FILE":"3464171","REV_AT_EPOCH":"10983","EPHEMERIS_TYPE":"0","APOAPSIS":"548.757","RCS_SIZE":"LARGE","MEAN_MOTION_DDOT":"0.0000000000000","CLASSIFICATION_TYPE":"U","MEAN_ELEMENT_THEORY":"SGP4","REF_FRAME":"TEME"},{"COUNTRY_CODE":"US","BSTAR":"0.00001853800000","MEAN_ANOMALY":"302.1862","PERIOD":"95.592","RA_OF_ASC_NODE":"150.7346","SITE":"AFETR","OBJECT_ID":"2020-035Y","SEMIMAJOR_AXIS":"6925.360","TLE_LINE2":"2 45679  53.0544 150.7346 0001574  57.9280 302.1862 15.06396260109839","LAUNCH_DATE":"2020-06-04","ARG_OF_PERICENTER":"57.9280","ECCENTRICITY":"0.00015740","MEAN_MOTION_DOT":"-0.00000005","MEAN_MOTION":"15.06396260","OBJECT_TYPE":"PAYLOAD","INCLINATION":"53.0544","PERIAPSIS":"546.135","OBJECT_NAME":"STARLINK-1394","DECAY_DATE":null,"ELEMENT_SET_NO":"999","EPHEMERIS_TYPE":"0","APOAPSIS":"548.315","RCS_SIZE":"LARGE","REV_AT_EPOCH":"10983","MEAN_ELEMENT_THEORY":"SGP4","REF_FRAME":"TEME","MEAN_MOTION_DDOT":"0.0000000000000","CLASSIFICATION_TYPE":"U","EPOCH":"2022-05-25T10:44:40.559424","FILE":"3464171","NORAD_CAT_ID":"45679","TIME_SYSTEM":"UTC","GP_ID":"204511427","TLE_LINE1":"1 45679U 20035Y   22145.44769166 -.00000005  00000-0  18538-4 0  9993","CENTER_NAME":"EARTH"},{"FILE":"3463908","EPOCH":"2022-05-25T09:19:44.796288","MEAN_MOTION_DDOT":"0.0000000000000","CLASSIFICATION_TYPE":"U","MEAN_ELEMENT_THEORY":"SGP4","REF_FRAME":"TEME","REV_AT_EPOCH":"11021","EPHEMERIS_TYPE":"0","RCS_SIZE":"LARGE","APOAPSIS":"548.636","TLE_LINE1":"1 45680U 20035Z   22145.38871292  .00000695  00000-0  65567-4 0  9990","CENTER_NAME":"EARTH","GP_ID":"204501351","TIME_SYSTEM":"UTC","NORAD_CAT_ID":"45680","SEMIMAJOR_AXIS":"6925.367","OBJECT_ID":"2020-035Z","SITE":"AFETR","PERIOD":"95.593","RA_OF_ASC_NODE":"150.9964","MEAN_ANOMALY":"312.4018","BSTAR":"0.00006556700000","COUNTRY_CODE":"US","ELEMENT_SET_NO":"999","OBJECT_NAME":"STARLINK-1395","DECAY_DATE":null,"INCLINATION":"53.0541","PERIAPSIS":"545.827","OBJECT_TYPE":"PAYLOAD","MEAN_MOTION":"15.06394061","ARG_OF_PERICENTER":"47.7142","ECCENTRICITY":"0.00020280","MEAN_MOTION_DOT":"0.00000695","TLE_LINE2":"2 45680  53.0541 150.9964 0002028  47.7142 312.4018 15.06394061110213","LAUNCH_DATE":"2020-06-04"},{"COUNTRY_CODE":"US","BSTAR":"0.00012796000000","PERIOD":"95.592","RA_OF_ASC_NODE":"151.0054","MEAN_ANOMALY":"309.7390","OBJECT_ID":"2020-035AA","SITE":"AFETR","SEMIMAJOR_AXIS":"6925.354","TLE_LINE2":"2 45681  53.0551 151.0054 0001792  50.3757 309.7390 15.06398141110222","LAUNCH_DATE":"2020-06-04","MEAN_MOTION_DOT":"0.00001625","ECCENTRICITY":"0.00017920","ARG_OF_PERICENTER":"50.3757","MEAN_MOTION":"15.06398141","OBJECT_TYPE":"PAYLOAD","PERIAPSIS":"545.978","INCLINATION":"53.0551","DECAY_DATE":null,"OBJECT_NAME":"STARLINK-1396","ELEMENT_SET_NO":"999","APOAPSIS":"548.460","RCS_SIZE":"LARGE","EPHEMERIS_TYPE":"0","REV_AT_EPOCH":"11022","REF_FRAME":"TEME","MEAN_ELEMENT_THEORY":"SGP4","CLASSIFICATION_TYPE":"U","MEAN_MOTION_DDOT":"0.0000000000000","EPOCH":"2022-05-25T09:14:25.660608","FILE":"3463908","NORAD_CAT_ID":"45681","TIME_SYSTEM":"UTC","GP_ID":"204501602","CENTER_NAME":"EARTH","TLE_LINE1":"1 45681U 20035AA  22145.38501922  .00001625  00000-0  12796-3 0  9990"},{"OBJECT_NAME":"STARLINK-1397","DECAY_DATE":null,"ELEMENT_SET_NO":"999","OBJECT_TYPE":"PAYLOAD","INCLINATION":"53.0553","PERIAPSIS":"545.561","ARG_OF_PERICENTER":"48.1295","ECCENTRICITY":"0.00023980","MEAN_MOTION_DOT":"-0.00000416","MEAN_MOTION":"15.06397246","TLE_LINE2":"2 45682  53.0553 150.3595 0002398  48.1295 311.9898 15.06397246110236","LAUNCH_DATE":"2020-06-04","OBJECT_ID":"2020-035AB","SITE":"AFETR","SEMIMAJOR_AXIS":"6925.357","PERIOD":"95.592","RA_OF_ASC_NODE":"150.3595","MEAN_ANOMALY":"311.9898","COUNTRY_CODE":"US","BSTAR":"-0.00000897430000","TLE_LINE1":"1 45682U 20035AB  22145.52509747 -.00000416  00000-0 -89743-5 0  9997","CENTER_NAME":"EARTH","GP_ID":"204500350","TIME_SYSTEM":"UTC","NORAD_CAT_ID":"45682","FILE":"3463908","EPOCH":"2022-05-25T12:36:08.421408","MEAN_ELEMENT_THEORY":"SGP4","REF_FRAME":"TEME","MEAN_MOTION_DDOT":"0.0000000000000","CLASSIFICATION_TYPE":"U","EPHEMERIS_TYPE":"0","APOAPSIS":"548.883","RCS_SIZE":"LARGE","REV_AT_EPOCH":"11023"}];
